NORAD_CAT_ID,OBJECT_NAME,OBJECT_TYPE,EPOCH,MEAN_MOTION,ECCENTRICITY,INCLINATION,RA_OF_ASC_NODE,ARG_OF_PERICENTER,MEAN_ANOMALY,BSTAR,MEAN_MOTION_DOT,MEAN_MOTION_DDOT,TLE_LINE0,TLE_LINE1,TLE_LINE2,SEMIMAJOR_AXIS,PERIOD,APOGEE,PERIGEE,DECAYED
54205.0,STARLINK-5249,PAYLOAD,2023-02-14 02:31:28,15.08823916,0.0001022,53.2169,339.7708,87.1642,272.9467,-0.00025512,-4.344e-05,0.0,0 STARLINK-5249,1 54205U 22141BA  23045.10518659 -.00004344  00000-0 -25512-3 0  9990,2 54205  53.2169 339.7708 0001022  87.1642 272.9467 15.08823916 17215,6917.93,95.439,540.502,539.088,0.0
54205.0,STARLINK-5249,PAYLOAD,2023-02-14 05:42:13,15.08832399,0.0001183,53.2181,339.176,91.3155,268.7973,-0.00019891,-3.451e-05,0.0,0 STARLINK-5249,1 54205U 22141BA  23045.23766044 -.00003451  00000-0 -19891-3 0  9998,2 54205  53.2181 339.1760 0001183  91.3155 268.7973 15.08832399 17237,6917.904,95.438,540.587,538.95,0.0
54205.0,STARLINK-5249,PAYLOAD,2023-02-14 12:03:46,15.08832005,0.0001163,53.2181,337.9866,90.6224,269.4901,-0.00018262,-3.192e-05,0.0,0 STARLINK-5249,1 54205U 22141BA  23045.50262213 -.00003192  00000-0 -18262-3 0  9990,2 54205  53.2181 337.9866 0001163  90.6224 269.4901 15.08832005 17049,6917.905,95.438,540.574,538.965,0.0
54205.0,STARLINK-5249,PAYLOAD,2023-02-15 02:22:13,15.08853841,0.0001016,53.2171,335.3113,89.1344,270.9764,-0.0001061,-1.977e-05,0.0,0 STARLINK-5249,1 54205U 22141BA  23046.09876960 -.00001977  00000-0 -10610-3 0  9993,2 54205  53.2171 335.3113 0001016  89.1344 270.9764 15.08853841 17368,6917.838,95.437,540.406,539.0,0.0
54205.0,STARLINK-5249,PAYLOAD,2023-02-15 11:54:32,15.08853262,9.33e-05,53.2163,333.5277,79.4891,280.6206,-0.00010484,-1.956e-05,0.0,0 STARLINK-5249,1 54205U 22141BA  23046.49620849 -.00001956  00000-0 -10484-3 0  9996,2 54205  53.2163 333.5277 0000933  79.4891 280.6206 15.08853262 17193,6917.84,95.437,540.35,539.059,0.0
54205.0,STARLINK-5249,PAYLOAD,2023-02-15 18:16:04,15.08833158,4.6e-05,53.2181,332.3359,107.7242,252.38,0.00026189,3.882e-05,0.0,0 STARLINK-5249,1 54205U 22141BA  23046.76116893  .00003882  00000-0  26189-3 0  9992,2 54205  53.2181 332.3359 0000460 107.7242 252.3800 15.08833158 17469,6917.901,95.438,540.085,539.448,0.0
54205.0,STARLINK-5249,PAYLOAD,2023-02-16 02:12:57,15.08877897,0.0001262,53.2175,330.8464,111.4317,248.681,0.0005667,8.752e-05,0.0,0 STARLINK-5249,1 54205U 22141BA  23047.09232657  .00008752  00000-0  56670-3 0  9995,2 54205  53.2175 330.8464 0001262 111.4317 248.6810 15.08877897 17511,6917.765,95.435,540.503,538.757,0.0
54205.0,STARLINK-5249,PAYLOAD,2023-02-16 11:45:16,15.08865332,0.0001637,53.2162,329.0633,59.4299,300.6855,0.00029614,4.431e-05,0.0,0 STARLINK-5249,1 54205U 22141BA  23047.48977938  .00004431  00000-0  29614-3 0  9994,2 54205  53.2162 329.0633 0001637  59.4299 300.6855 15.08865332 17576,6917.803,95.436,540.8,538.536,0.0
54205.0,STARLINK-5249,PAYLOAD,2023-02-17 00:28:24,15.08836991,0.0001156,53.2178,326.6847,61.8685,298.2424,-0.00021216,-3.662e-05,0.0,0 STARLINK-5249,1 54205U 22141BA  23048.01973189 -.00003662  00000-0 -21216-3 0  9995,2 54205  53.2178 326.6847 0001156  61.8685 298.2424 15.08836991 17657,6917.89,95.438,540.554,538.955,0.0
54205.0,STARLINK-5249,PAYLOAD,2023-02-17 03:39:09,15.08852717,9.69e-05,53.2172,326.0916,74.0172,286.0927,-4.6257e-05,-1.024e-05,0.0,0 STARLINK-5249,1 54205U 22141BA  23048.15219527 -.00001024  00000-0 -46257-4 0  9992,2 54205  53.2172 326.0916 0000969  74.0172 286.0927 15.08852717 17679,6917.842,95.437,540.377,539.036,0.0
54205.0,STARLINK-5249,PAYLOAD,2023-02-18 00:19:14,15.08823789,0.0001306,53.2175,322.2225,72.0754,288.038,-0.00063467,-0.0001037,0.0,0 STARLINK-5249,1 54205U 22141BA  23049.01336632 -.00010370  00000-0 -63467-3 0  9990,2 54205  53.2175 322.2225 0001306  72.0754 288.0380 15.08823789 17800,6917.93,95.439,540.698,538.891,0.0
54205.0,STARLINK-5249,PAYLOAD,2023-02-18 01:54:37,15.0882415,0.0001377,53.2181,321.9256,73.2198,286.8945,-0.00061476,-0.00010054,0.0,0 STARLINK-5249,1 54205U 22141BA  23049.07960639 -.00010054  00000-0 -61476-3 0  9993,2 54205  53.2181 321.9256 0001377  73.2198 286.8945 15.08824150 17581,6917.929,95.439,540.746,538.841,0.0
54205.0,STARLINK-5249,PAYLOAD,2023-02-18 17:48:27,15.0881424,0.000126,53.2174,318.956,58.0225,302.089,0.00010425,1.371e-05,0.0,0 STARLINK-5249,1 54205U 22141BA  23049.74198910  .00001371  00000-0  10425-3 0  9990,2 54205  53.2174 318.9560 0001260  58.0225 302.0890 15.08814240 17916,6917.959,95.439,540.696,538.952,0.0
54205.0,STARLINK-5249,PAYLOAD,2023-02-19 00:09:58,15.08838304,0.0001353,53.2172,317.7649,71.6591,288.4548,0.00029172,4.358e-05,0.0,0 STARLINK-5249,1 54205U 22141BA  23050.00693108  .00004358  00000-0  29172-3 0  9997,2 54205  53.2172 317.7649 0001353  71.6591 288.4548 15.08838304 17957,6917.886,95.438,540.687,538.815,0.0
54205.0,STARLINK-5249,PAYLOAD,2023-02-19 11:17:40,15.0884837,0.0001331,53.2171,315.6835,76.9233,283.1907,0.00012187,1.653e-05,0.0,0 STARLINK-5249,1 54205U 22141BA  23050.47060886  .00001653  00000-0  12187-3 0  9992,2 54205  53.2171 315.6835 0001331  76.9233 283.1907 15.08848370 17794,6917.855,95.437,540.641,538.799,0.0
54205.0,STARLINK-5249,PAYLOAD,2023-02-20 00:00:46,15.08831394,0.0001471,53.217,313.3042,90.5778,269.5383,0.00033058,4.976e-05,0.0,0 STARLINK-5249,1 54205U 22141BA  23051.00054059  .00004976  00000-0  33058-3 0  9998,2 54205  53.2170 313.3042 0001471  90.5778 269.5383 15.08831394 18109,6917.907,95.438,540.789,538.754,0.0
54205.0,STARLINK-5249,PAYLOAD,2023-02-21 03:02:19,15.08853559,0.0001483,53.2168,308.2482,109.5663,250.5489,-7.1845e-05,-1.432e-05,0.0,0 STARLINK-5249,1 54205U 22141BA  23052.12661920 -.00001432  00000-0 -71845-4 0  9996,2 54205  53.2168 308.2482 0001483 109.5663 250.5489 15.08853559 18276,6917.839,95.437,540.73,538.678,0.0
54205.0,STARLINK-5249,PAYLOAD,2023-02-21 22:06:57,15.08843282,0.0001473,53.2163,304.6785,112.207,247.9078,-4.9538e-05,-1.076e-05,0.0,0 STARLINK-5249,1 54205U 22141BA  23052.92150096 -.00001076  00000-0 -49538-4 0  9999,2 54205  53.2163 304.6785 0001473 112.2070 247.9078 15.08843282 18163,6917.87,95.437,540.754,538.716,0.0
54205.0,STARLINK-5249,PAYLOAD,2023-02-22 02:53:06,15.08854737,0.0001206,53.216,303.7884,94.4871,265.6259,-1.4328e-05,-5.16e-06,0.0,0 STARLINK-5249,1 54205U 22141BA  23053.12021153 -.00000516  00000-0 -14328-4 0  9990,2 54205  53.2160 303.7884 0001206  94.4871 265.6259 15.08854737 18192,6917.835,95.437,540.535,538.866,0.0
54205.0,STARLINK-5249,PAYLOAD,2023-02-22 17:11:36,15.08827431,0.0001212,53.2159,301.11,95.5905,264.5226,-0.00010062,-1.888e-05,0.0,0 STARLINK-5249,1 54205U 22141BA  23053.71639480 -.00001888  00000-0 -10062-3 0  9996,2 54205  53.2159 301.1100 0001212  95.5905 264.5226 15.08827431 18519,6917.919,95.438,540.622,538.945,0.0
54205.0,STARLINK-5249,PAYLOAD,2023-02-22 21:57:46,15.08823884,9.52e-05,53.216,300.2178,88.4121,271.698,-0.0001212,-2.215e-05,0.0,0 STARLINK-5249,1 54205U 22141BA  23053.91511919 -.00002215  00000-0 -12120-3 0  9996,2 54205  53.2160 300.2178 0000952  88.4121 271.6980 15.08823884 18319,6917.93,95.439,540.453,539.136,0.0
54205.0,STARLINK-5249,PAYLOAD,2023-02-23 02:43:56,15.08818463,9.47e-05,53.2163,299.3269,81.4498,278.6602,-0.00015379,-2.733e-05,0.0,0 STARLINK-5249,1 54205U 22141BA  23054.11384632 -.00002733  00000-0 -15379-3 0  9993,2 54205  53.2163 299.3269 0000947  81.4498 278.6602 15.08818463 18578,6917.946,95.439,540.466,539.156,0.0
54205.0,STARLINK-5249,PAYLOAD,2023-02-24 00:59:18,15.08846599,0.0001112,53.2163,295.1651,79.8715,280.2403,1.2651e-05,-8.6e-07,0.0,0 STARLINK-5249,1 54205U 22141BA  23055.04119093 -.00000086  00000-0  12651-4 0  9992,2 54205  53.2163 295.1651 0001112  79.8715 280.2403 15.08846599 18710,6917.86,95.437,540.494,538.956,0.0
54205.0,STARLINK-5249,PAYLOAD,2023-02-24 20:03:56,15.08823965,0.0001276,53.2165,291.5973,69.998,290.115,0.00040946,6.232e-05,0.0,0 STARLINK-5249,1 54205U 22141BA  23055.83607033  .00006232  00000-0  40946-3 0  9990,2 54205  53.2165 291.5973 0001276  69.9980 290.1150 15.08823965 18603,6917.929,95.439,540.677,538.912,0.0
54205.0,STARLINK-5249,PAYLOAD,2023-02-25 00:50:05,15.088437,0.0001271,53.2168,290.7051,67.392,292.7207,0.00025428,3.762e-05,0.0,0 STARLINK-5249,1 54205U 22141BA  23056.03478497  .00003762  00000-0  25428-3 0  9996,2 54205  53.2168 290.7051 0001271  67.3920 292.7207 15.08843700 18638,6917.869,95.437,540.613,538.855,0.0
54205.0,STARLINK-5249,PAYLOAD,2023-02-25 15:08:34,15.08839794,0.0001315,53.2163,288.0288,68.3081,291.8051,7.8727e-05,9.65e-06,0.0,0 STARLINK-5249,1 54205U 22141BA  23056.63095291  .00000965  00000-0  78727-4 0  9992,2 54205  53.2163 288.0288 0001315  68.3081 291.8051 15.08839794 18953,6917.881,95.438,540.656,538.836,0.0
54205.0,STARLINK-5249,PAYLOAD,2023-02-25 21:30:06,15.08847679,0.0001163,53.2167,286.8395,72.9328,287.1792,-2.3114e-05,-6.56e-06,0.0,0 STARLINK-5249,1 54205U 22141BA  23056.89591155 -.00000656  00000-0 -23114-4 0  9999,2 54205  53.2167 286.8395 0001163  72.9328 287.1792 15.08847679 18768,6917.857,95.437,540.526,538.917,0.0
54205.0,STARLINK-5249,PAYLOAD,2023-02-26 00:40:52,15.08849833,0.0001175,53.2166,286.2442,74.3557,285.7565,-5.6178e-06,-3.77e-06,0.0,0 STARLINK-5249,1 54205U 22141BA  23057.02838862 -.00000377  00000-0 -56178-5 0  9991,2 54205  53.2166 286.2442 0001175  74.3557 285.7565 15.08849833 19012,6917.85,95.437,540.528,538.902,0.0
54205.0,STARLINK-5249,PAYLOAD,2023-02-26 21:20:52,15.08855639,0.0001057,53.2162,282.3785,86.5394,273.5719,-5.577e-05,-1.176e-05,0.0,0 STARLINK-5249,1 54205U 22141BA  23057.88949985 -.00001176  00000-0 -55770-4 0  9998,2 54205  53.2162 282.3785 0001057  86.5394 273.5719 15.08855639 18913,6917.833,95.437,540.429,538.966,0.0
54205.0,STARLINK-5249,PAYLOAD,2023-02-27 00:31:38,15.08856955,0.0001075,53.2161,281.7838,84.3142,275.7973,-4.0482e-05,-9.32e-06,0.0,0 STARLINK-5249,1 54205U 22141BA  23058.02197720 -.00000932  00000-0 -40482-4 0  9990,2 54205  53.2161 281.7838 0001075  84.3142 275.7973 15.08856955 19167,6917.829,95.436,540.437,538.95,0.0
